satname,norad_id,inclination_deg,eccentricity,mean_motion_rev_per_day,perigee_km,apogee_km,l1,l2
STARLINK-1309,45414,53.0574,0.0003582,15.77717417,334.5042269869118,339.31488634010566,1 45414U 20019BG  26202.37008178  .00066302  00000+0  38839-3 0  9996,2 45414  53.0574 186.4790 0003582  63.6770 296.4618 15.77717417350984
STARLINK-1316,45415,53.1521,0.0001864,15.42640871,437.0481508678995,439.58932556710806,1 45415U 20019BH  26202.28228727  .00033325  00000+0  75961-3 0  9997,2 45415  53.1521 222.7785 0001864 333.5457  26.5453 15.42640871350539
STARLINK-1286,45417,53.0425,0.0006944,15.68999172,357.08145037032773,366.4418215959813,1 45417U 20019BK  26202.37362012  .00054101  00000+0  46127-3 0  9992,2 45417  53.0425 200.1848 0006944  39.4717 320.6804 15.68999172351086
STARLINK-1308,45419,53.0433,0.0002944,15.69819562,357.42970935692574,361.39677894068154,1 45419U 20019BM  26202.23685761  .00040447  00000+0  33548-3 0  9999,2 45419  53.0433 219.8560 0002944 136.5762 223.5487 15.69819562350543
STARLINK-1329,45531,53.0388,0.0003455,15.79311131,330.07278510112883,334.70976013750897,1 45531U 20025A   26202.12307379  .00077256  00000+0  42018-3 0  9995,2 45531  53.0388 141.4317 0003455  50.6141 309.5185 15.79311131346413
STARLINK-1338,45532,53.0403,0.0002709,15.75806944,340.51533235994066,344.1564845817511,1 45532U 20025B   26202.12580808  .00061535  00000+0  39273-3 0  9998,2 45532  53.0403 149.2886 0002709  93.6762 266.4567 15.75806944346306
STARLINK-1350,45535,53.0693,0.0001914,15.40635773,442.925949736873,445.53755249480037,1 45535U 20025E   26202.01672213  .00033407  00000+0  81381-3 0  9995,2 45535  53.0693 125.3080 0001914  98.9829 261.1392 15.40635773346670
STARLINK-1362,45538,53.155,0.0005239,15.40922555,439.8114526531117,446.95904366473223,1 45538U 20025H   26202.36829758  .00033897  00000+0  81756-3 0  9993,2 45538  53.1550 195.2327 0005239  11.0736 349.0383 15.40922555345710
STARLINK-1368,45540,53.1554,0.0004524,15.41182567,439.5322803686604,445.7036994835453,1 45540U 20025K   26202.37607153  .00029577  00000+0  70897-3 0  9994,2 45540  53.1554 195.5022 0004524  11.4258 348.6849 15.41182567345704
STARLINK-1371,45542,53.0418,0.0002721,15.72599339,349.64010365429203,353.30235645308767,1 45542U 20025M   26202.13258914  .00050612  00000+0  37214-3 0  9997,2 45542  53.0418 160.0729 0002721  81.8696 278.2630 15.72599339346158
STARLINK-1372,45543,53.1545,0.0004684,15.41636718,438.0841584731761,444.47258679425977,1 45543U 20025N   26202.25726585  .00031917  00000+0  75264-3 0  9999,2 45543  53.1545 195.4230 0004684   3.5989 356.5050 15.41636718344799
STARLINK-1373,45544,53.0408,0.0003131,15.74440623,344.1180276522118,348.3288221502853,1 45544U 20025P   26202.15235972  .00057760  00000+0  39159-3 0  9991,2 45544  53.0408 154.4977 0003131  87.9925 272.1452 15.74440623346236
STARLINK-1327,45555,53.0376,0.0002262,15.76591992,338.5851294195809,341.6244620079606,1 45555U 20025AA  26202.49763696  .00080018  00000+0  49116-3 0  9995,2 45555  53.0376 129.7557 0002262 117.2395 242.8855 15.76591992346603
STARLINK-1356,45564,53.0404,0.0004569,15.68832423,359.1595325541348,365.31888833523954,1 45564U 20025AK  26202.55077133  .00051509  00000+0  44286-3 0  9992,2 45564  53.0404 144.4883 0004569  70.3722 289.7787 15.68832423346406
STARLINK-1357,45565,53.0411,0.0001474,15.743832,345.3957356302144,347.37812528491213,1 45565U 20025AL  26201.93741520  .00055285  00000+0  37609-3 0  9998,2 45565  53.0411 102.6825 0001474 255.3097 104.7758 15.74383200346943
STARLINK-1361,45567,53.0392,0.0002439,15.72821614,349.1959885112383,352.4783821188357,1 45567U 20025AN  26202.55047039  .00063701  00000+0  46213-3 0  9996,2 45567  53.0392 142.0980 0002439  99.7503 260.3790 15.72821614346441
STARLINK-1376,45570,53.1545,0.0002812,15.42137925,437.88351261102525,441.7179207828958,1 45570U 20025AR  26202.22214912  .00033232  00000+0  77032-3 0  9999,2 45570  53.1545 171.8574 0002812  26.4938 333.6211 15.42137925346027
STARLINK-1320,45572,53.0316,0.0004613,16.08696728,247.36316909388006,253.47867663351462,1 45572U 20025AT  26203.02791972  .00579207  18131-3  65338-3 0  9997,2 45572  53.0316  28.4877 0004613 271.8408  88.2096 16.08696728348082
STARLINK-1321,45573,53.0406,0.0001423,15.73221273,348.74015321770185,350.65489492325196,1 45573U 20025AU  26202.03725717  .00056911  00000+0  40672-3 0  9990,2 45573  53.0406 128.3766 0001423 109.5992 250.5180 15.73221273346289
STARLINK-1331,45578,53.0426,0.0001856,15.72998287,349.0845237921758,351.582131977887,1 45578U 20025AZ  26202.51197276  .00062092  00000+0  44730-3 0  9997,2 45578  53.0426 133.0195 0001856 103.2830 256.8394 15.72998287346570
STARLINK-1333,45580,53.1538,0.0004427,15.39143682,445.61802756353245,451.66245613346473,1 45580U 20025BB  26202.61530108  .00039208  00000+0  10004-2 0  9995,2 45580  53.1538 172.4590 0004427  25.1871 334.9349 15.39143682346053
STARLINK-1335,45581,53.1518,0.0003706,15.40649655,441.66241448396886,446.7191238264677,1 45581U 20025BC  26202.20854911  .00028729  00000+0  70129-3 0  9993,2 45581  53.1518 170.5721 0003706 355.3256   4.7714 15.40649655346030
STARLINK-1337,45582,53.0402,0.0001588,15.81107428,326.2429286020151,328.37257785564,1 45582U 20025BD  26202.45851784  .00102628  00000+0  51171-3 0  9993,2 45582  53.0402 119.9456 0001588 156.2605 203.8490 15.81107428346738
STARLINK-1347,45586,53.0367,0.0001278,15.73295564,348.6259400350282,350.34552040487324,1 45586U 20025BH  26202.00253686  .00056381  00000+0  40173-3 0  9999,2 45586  53.0367  94.8559 0001278  99.5978 260.5184 15.73295564347040
STARLINK-1364,45589,53.039,0.0004107,15.74077999,344.4940039703615,350.01824188153296,1 45589U 20025BL  26202.49701327  .00066451  00000+0  45640-3 0  9998,2 45589  53.0390 128.8723 0004107  77.3985 282.7492 15.74077999346617
STARLINK-1365,45590,53.0434,0.0003434,15.68968143,359.5359859173259,364.1650093306944,1 45590U 20025BM  26202.15288855  .00051398  00000+0  43957-3 0  9992,2 45590  53.0434 166.6928 0003434  45.1868 314.9427 15.68968143346079
STARLINK-1443,45660,53.1316,0.0002607,15.35679117,457.12165743026526,460.6864906462679,1 45660U 20035D   26202.30749381  .00032637  00000+0  93407-3 0  9994,2 45660  53.1316 163.4550 0002607  68.8395 291.2886 15.35679117339220
STARLINK-1446,45663,53.0203,0.0002557,15.50043716,414.8608974397739,418.3357250779527,1 45663U 20035G   26201.95501334  .00021175  00000+0  37784-3 0  9992,2 45663  53.0203  83.0412 0002557  39.7239 320.3955 15.50043716340296
STARLINK-1448,45665,53.0388,0.0001954,15.78315253,333.90197234183324,336.5255498192637,1 45665U 20035J   26202.46022245  .00094168  00000+0  53387-3 0  9999,2 45665  53.0388 115.6735 0001954 139.6292 220.4873 15.78315253339870
STARLINK-1451,45668,53.0521,0.0002704,15.1600663,516.0595136729353,519.7889035745593,1 45668U 20035M   26202.23063859  .00014515  00000+0  76096-3 0  9993,2 45668  53.0521 180.2123 0002704  31.2215 328.8938 15.16006630338969
STARLINK-1452,45669,53.021,0.0006643,15.65307349,367.8706210097198,376.83932464481677,1 45669U 20035N   26201.95832032  .00035213  00000+0  35131-3 0  9992,2 45669  53.0210  96.8213 0006643  93.4222 266.7552 15.65307349340107
STARLINK-1453,45670,53.035,0.0002206,15.79386778,330.69670204260274,333.6572925782157,1 45670U 20035P   26202.60118404  .00112974  00000+0  60822-3 0  9992,2 45670  53.0350  75.0397 0002206 222.5722 137.5128 15.79386778340356
STARLINK-1454,45671,53.0416,0.0001466,15.7663812,338.98888212295606,340.9586321969555,1 45671U 20035Q   26202.19210658  .00075018  00000+0  46008-3 0  9998,2 45671  53.0416 118.7524 0001466 128.1895 231.9257 15.76638120339804
STARLINK-1456,45673,53.0388,0.0001263,15.72670272,350.4189517911591,352.11879971537473,1 45673U 20035S   26202.04537760  .00054840  00000+0  40148-3 0  9999,2 45673  53.0388 114.9354 0001263 117.8812 242.2333 15.72670272339868
STARLINK-1458,45675,53.0416,0.000176,15.69024567,360.5027019541276,362.87512067491025,1 45675U 20035U   26202.66668981  .00026168  00000+0  22642-3 0  9990,2 45675  53.0416 129.1259 0001760 100.9673 177.8079 15.69024567  5905
STARLINK-1460,45676,53.1554,0.0004985,15.38839576,446.13602212551723,452.9432157145793,1 45676U 20035V   26202.20708989  .00030176  00000+0  78083-3 0  9998,2 45676  53.1554 161.6344 0004985  43.1168 317.0227 15.38839576339201
STARLINK-1392,45677,53.1508,0.0005334,15.4239219,435.4151116058629,442.6876881908738,1 45677U 20035W   26202.19313129  .00036067  00000+0  82761-3 0  9998,2 45677  53.1508 159.2530 0005334  41.0247 319.1159 15.42392190339270
STARLINK-1394,45679,53.0376,0.0001155,15.71056802,355.0976936976558,356.65325057871996,1 45679U 20035Y   26202.01422929  .00047403  00000+0  37241-3 0  9999,2 45679  53.0376 105.7044 0001155 133.6472 226.4641 15.71056802339988
STARLINK-1402,45685,53.0399,8.58e-05,15.68126672,363.6829432101931,364.83993878266756,1 45685U 20035AE  26202.43011217  .00041983  00000+0  37304-3 0  9993,2 45685  53.0399  96.2451 0000858 148.9785 211.1281 15.68126672340163
STARLINK-1404,45686,53.1538,0.0004612,15.48519648,417.9200886055751,424.19166411473,1 45686U 20035AF  26202.20806298  .00044526  00000+0  82634-3 0  9992,2 45686  53.1538 138.9319 0004612  32.5454 327.5838 15.48519648339569
STARLINK-1413,45689,53.1552,0.0004826,15.38552401,447.0937487197398,453.68464220359874,1 45689U 20035AJ  26202.57530567  .00036626  00000+0  95365-3 0  9995,2 45689  53.1552 144.5958 0004826  46.7588 313.3819 15.38552401339433
STARLINK-1417,45693,53.05,0.0003046,15.18650474,507.82013741852006,512.0163406701458,1 45693U 20035AN  26202.32068423  .00014874  00000+0  72289-3 0  9991,2 45693  53.0500 165.6595 0003046 342.1401  17.9485 15.18650474339164
STARLINK-1420,45695,53.0419,0.0001154,15.75550797,342.2886545648198,343.83990782051933,1 45695U 20035AQ  26201.92582641  .00060845  00000+0  39282-3 0  9996,2 45695  53.0419  88.1642 0001154 196.1917 163.9066 15.75550797340220
